ONEWEB-0560             
1 55145U 23004F   24249.11762627  .00000079  00000+0  16794-3 0  9997
2 55145  87.9081 104.8949 0001638  96.4797 263.6522 13.18684246 84034
ONEWEB-0565             
1 55146U 23004G   24249.11130091  .00000094  00000+0  20623-3 0  9995
2 55146  87.9076 104.9705 0002277  92.6024 267.5369 13.18686876 84023
ONEWEB-0567             
1 55147U 23004H   24249.56023125  .00000079  00000+0  16650-3 0  9992
2 55147  87.9077 104.8349 0001984  95.9570 264.1788 13.18682810 84082
ONEWEB-0569             
1 55148U 23004J   24249.05993052 -.00000188  00000+0 -55010-3 0  9998
2 55148  87.8858  89.5740 0002146 116.6526 243.4823 13.13470929 84830
ONEWEB-0570             
1 55149U 23004K   24249.16821127  .00000064  00000+0  12936-3 0  9995
2 55149  87.9079 104.9115 0002431  75.7271 284.4131 13.18686770 84020
ONEWEB-0571             
1 55150U 23004L   24249.61715012  .00000027  00000+0  34605-4 0  9999
2 55150  87.9078 104.8284 0002590  98.8398 261.3027 13.18684367 84094
ONEWEB-0572             
1 55151U 23004M   24249.20194266  .00000137  00000+0  32085-3 0  9998
2 55151  87.9160 135.3338 0002003  78.0781 282.0575 13.17647100 81886
ONEWEB-0573             
1 55152U 23004N   24249.61083529  .00000053  00000+0  10072-3 0  9992
2 55152  87.9075 104.8469 0002639  91.7055 268.4379 13.18685644 84080
